0 TITAN 3C TRANSTAGE R/B
1 08751U 76023F   13281.35943088 -.00000242  00000-0  10000-3 0   370
2 08751 012.1312 114.7481 0154598 315.5901 043.3345 00.98264252137680
0 TITAN 3C TRANSTAGE R/B
1 08751U 76023F   13287.46497488 -.00000126  00000-0  10000-3 0   388
2 08751 012.1417 114.6098 0154645 315.7880 043.1309 00.98262224137742
0 TITAN 3C TRANSTAGE R/B
1 08751U 76023F   13288.48259986 -.00000094  00000-0  10000-3 0   395
2 08751 012.1444 114.5808 0154581 315.8843 043.0418 00.98261899137757
0 TITAN 3C TRANSTAGE R/B
1 08751U 76023F   13289.50022816 -.00000065  00000-0  10000-3 0   409
2 08751 012.1464 114.5558 0154276 315.9306 042.9974 00.98261666137765
0 TITAN 3C TRANSTAGE R/B
1 08751U 76023F   13291.53541371 -.00000019  00000-0  10000-3 0   417
2 08751 012.1499 114.5095 0154290 316.0023 042.9133 00.98261525137786
0 TITAN 3C TRANSTAGE R/B
1 08751U 76023F   13293.57056377  .00000002  00000-0  10000-3 0   422
2 08751 012.1535 114.4629 0154222 316.0739 042.8163 00.98261732137803
